STARLINK-32105          
1 59689U 24086H   26068.02516983 -.00000238  00000+0  86595-6 0  9995
2 59689  43.0048  63.3818 0000599 262.6216  97.4567 15.27571735104012
COSMOS 2576             
1 59773U 24092A   26068.82603826  .00015211  00000+0  56283-3 0  9991
2 59773  97.4253 186.0053 0005946 159.7731 200.3745 15.27760963101271
